STARLINK-1918
1 26768C 20074AF  21325.14531015  .00006034  00000-0  40442-3 0  3250
2 26768  53.0531 182.5786 0001680  73.0085 151.7057 15.06380680    19
